<?xml version='1.0' encoding='utf-8'?>
<kml xmlns="http://www.opengis.net/kml/2.2">
  <Document>
    <name>Dr Plumbing service area</name>
    <Style id="service-area">
      <LineStyle>
        <color>ff2b5ab5</color>
        <width>2</width>
      </LineStyle>
      <PolyStyle>
        <color>552b5ab5</color>
      </PolyStyle>
    </Style>
    <Placemark>
      <name>Everett to Federal Way service area</name>
      <styleUrl>#service-area</styleUrl>
      <Polygon>
        <outerBoundaryIs>
          <LinearRing>
            <coordinates>-122.4546316,47.5758685,0 -122.4545924,47.5762018,0 -122.4545157,47.5773231,0 -122.4543803,47.5782211,0 -122.4541603,47.5791133,0 -122.4540586,47.5794567,0 -122.4535851,47.5808621,0 -122.4530507,47.5822728,0 -122.4514984,47.5857035,0 -122.4515143,47.5857107,0 -122.4507289,47.5873808,0 -122.4494332,47.5910048,0 -122.4484919,47.5947366,0 -122.4479135,47.5985415,0 -122.4477035,47.6023844,0 -122.4478638,47.6062297,0 -122.4483929,47.6100418,0 -122.4492859,47.6137854,0 -122.4505345,47.6174258,0 -122.4521272,47.6209295,0 -122.4537157,47.6240197,0 -122.4539013,47.6244429,0 -122.4542869,47.6254739,0 -122.4543729,47.6261015,0 -122.4543915,47.6265773,0 -122.4542548,47.6285681,0 -122.4542429,47.6286402,0 -122.4537847,47.6303407,0 -122.4529016,47.6344791,0 -122.4524606,47.6386877,0 -122.4524667,47.6429193,0 -122.4529197,47.6471266,0 -122.4531095,47.6483013,0 -122.4541626,47.6530009,0 -122.4543415,47.6536217,0 -122.4552560,47.6564063,0 -122.4554088,47.6568198,0 -122.4560039,47.6583347,0 -122.4564955,47.6595150,0 -122.4570985,47.6611630,0 -122.4580727,47.6642379,0 -122.4585051,47.6658270,0 -122.4585712,47.6661166,0 -122.4589054,47.6679861,0 -122.4589724,47.6685008,0 -122.4591249,47.6703164,0 -122.4591917,47.6720638,0 -122.4592006,47.6723522,0 -122.4592193,47.6731363,0 -122.4591690,47.6751064,0 -122.4587996,47.6800316,0 -122.4587222,47.6808426,0 -122.4586605,47.6813736,0 -122.4586089,47.6817442,0 -122.4583888,47.6827199,0 -122.4581827,47.6832972,0 -122.4576819,47.6843313,0 -122.4473130,47.7033748,0 -122.4471977,47.7035836,0 -122.4466422,47.7045754,0 -122.4455692,47.7062514,0 -122.4453553,47.7065208,0 -122.4441881,47.7077583,0 -122.4442042,47.7077735,0 -122.4436109,47.7083613,0 -122.4410106,47.7115271,0 -122.4387477,47.7149424,0 -122.4368460,47.7185711,0 -122.4353255,47.7223754,0 -122.4342021,47.7263152,0 -122.4339995,47.7271942,0 -122.4335968,47.7286408,0 -122.4335340,47.7288359,0 -122.4326188,47.7311133,0 -122.4321238,47.7320137,0 -122.4309086,47.7337352,0 -122.4308239,47.7338407,0 -122.4298420,47.7349436,0 -122.4295209,47.7352381,0 -122.4290763,47.7352994,0 -122.4251301,47.7360465,0 -122.4212786,47.7371856,0 -122.4175608,47.7387052,0 -122.4140142,47.7405900,0 -122.4106744,47.7428209,0 -122.4075752,47.7453755,0 -122.4047478,47.7482281,0 -122.4022207,47.7513498,0 -122.4000194,47.7547091,0 -122.3981661,47.7582723,0 -122.3966794,47.7620034,0 -122.3955744,47.7658648,0 -122.3948622,47.7698175,0 -122.3945500,47.7738217,0 -122.3946409,47.7778370,0 -122.3946509,47.7779740,0 -122.3946124,47.7781410,0 -122.3939478,47.7817780,0 -122.3936219,47.7854608,0 -122.3936375,47.7891579,0 -122.3939943,47.7928379,0 -122.3946894,47.7964691,0 -122.3957168,47.8000207,0 -122.3968863,47.8029999,0 -122.3969539,47.8032039,0 -122.3967783,47.8041735,0 -122.3964106,47.8057499,0 -122.3961216,47.8067477,0 -122.3957681,47.8070847,0 -122.3941488,47.8083058,0 -122.3927037,47.8092603,0 -122.3923570,47.8094919,0 -122.3919304,47.8097801,0 -122.3885512,47.8123336,0 -122.3854609,47.8152300,0 -122.3826943,47.8184370,0 -122.3814741,47.8200130,0 -122.3807531,47.8205408,0 -122.3776393,47.8226089,0 -122.3749684,47.8245462,0 -122.3690153,47.8292507,0 -122.3684047,47.8297432,0 -122.3666237,47.8312082,0 -122.3652874,47.8321962,0 -122.3626833,47.8339297,0 -122.3593581,47.8367060,0 -122.3575528,47.8385799,0 -122.3568404,47.8392620,0 -122.3560515,47.8397729,0 -122.3531790,47.8414461,0 -122.3531482,47.8414622,0 -122.3498830,47.8433722,0 -122.3468129,47.8455820,0 -122.3439652,47.8480721,0 -122.3413655,47.8508199,0 -122.3390369,47.8538011,0 -122.3370005,47.8569889,0 -122.3352742,47.8603549,0 -122.3351773,47.8605680,0 -122.3342950,47.8617934,0 -122.3321386,47.8651253,0 -122.3303230,47.8686545,0 -122.3288661,47.8723462,0 -122.3277822,47.8761642,0 -122.3270820,47.8800707,0 -122.3267724,47.8840274,0 -122.3268564,47.8879954,0 -122.3273331,47.8919354,0 -122.3275647,47.8932837,0 -122.3275814,47.8935086,0 -122.3277097,47.8974505,0 -122.3277193,47.8975602,0 -122.3277015,47.8977389,0 -122.3275129,47.8983349,0 -122.3267172,47.9004273,0 -122.3258488,47.9030714,0 -122.3258874,47.9030841,0 -122.3258232,47.9032803,0 -122.3253322,47.9045894,0 -122.3248102,47.9056495,0 -122.3232788,47.9091783,0 -122.3221673,47.9126098,0 -122.3221365,47.9126909,0 -122.3218524,47.9132608,0 -122.3216119,47.9136560,0 -122.3215971,47.9136770,0 -122.3203666,47.9151065,0 -122.3203902,47.9151267,0 -122.3187935,47.9169909,0 -122.3165196,47.9202529,0 -122.3145808,47.9237245,0 -122.3129962,47.9273715,0 -122.3117816,47.9311578,0 -122.3109489,47.9350460,0 -122.3104213,47.9382889,0 -122.3103933,47.9384347,0 -122.3098084,47.9409363,0 -122.3095029,47.9418954,0 -122.3089517,47.9441844,0 -122.3089076,47.9441724,0 -122.3084109,47.9460084,0 -122.3082369,47.9464588,0 -122.3082261,47.9464802,0 -122.3079348,47.9469400,0 -122.3071978,47.9479687,0 -122.3068397,47.9485080,0 -122.3065338,47.9488192,0 -122.3058358,47.9493874,0 -122.3029096,47.9520192,0 -122.3002562,47.9549259,0 -122.2979012,47.9580793,0 -122.2958676,47.9614488,0 -122.2941749,47.9650019,0 -122.2928396,47.9687041,0 -122.2918745,47.9725196,0 -122.2912891,47.9764115,0 -122.2910890,47.9803421,0 -122.2910695,47.9922144,0 -122.2910187,47.9931953,0 -122.2903471,47.9939121,0 -122.2629284,48.0203861,0 -122.2621328,48.0210763,0 -122.2611228,48.0213752,0 -122.2392892,48.0265897,0 -122.2384008,48.0268127,0 -122.2231034,48.0308386,0 -122.2221970,48.0310326,0 -122.2212766,48.0311416,0 -122.2102726,48.0319286,0 -122.2093886,48.0320017,0 -122.1973830,48.0331283,0 -122.1923030,48.0339373,0 -122.1872573,48.0350776,0 -122.1869015,48.0351546,0 -122.1868304,48.0351693,0 -122.1841864,48.0355301,0 -122.1837494,48.0355528,0 -122.1829214,48.0355594,0 -122.1817741,48.0356252,0 -122.1796178,48.0356363,0 -122.1786712,48.0355947,0 -122.1784781,48.0350662,0 -122.1782230,48.0340150,0 -122.1771511,48.0303652,0 -122.1757373,48.0268338,0 -122.1739945,48.0234527,0 -122.1719384,48.0202523,0 -122.1695876,48.0172618,0 -122.1669634,48.0145081,0 -122.1640894,48.0120161,0 -122.1609917,48.0098084,0 -122.1576983,48.0079049,0 -122.1570735,48.0075823,0 -122.1575063,48.0068057,0 -122.1590901,48.0036429,0 -122.1603883,48.0003525,0 -122.1613907,47.9969603,0 -122.1620895,47.9934928,0 -122.1624793,47.9899771,0 -122.1625890,47.9883219,0 -122.1626108,47.9881386,0 -122.1627142,47.9875606,0 -122.1629310,47.9871165,0 -122.1629841,47.9870292,0 -122.1633487,47.9865234,0 -122.1637420,47.9860784,0 -122.1655489,47.9842125,0 -122.1679874,47.9811427,0 -122.1701137,47.9778490,0 -122.1719074,47.9743629,0 -122.1733511,47.9707181,0 -122.1744312,47.9669493,0 -122.1751371,47.9630930,0 -122.1754621,47.9591861,0 -122.1754031,47.9552661,0 -122.1749606,47.9513707,0 -122.1741390,47.9475374,0 -122.1729460,47.9438029,0 -122.1714566,47.9403501,0 -122.1714296,47.9402791,0 -122.1713599,47.9394375,0 -122.1713298,47.9383714,0 -122.1712896,47.9377732,0 -122.1712961,47.9369724,0 -122.1715041,47.9364907,0 -122.1725590,47.9343776,0 -122.1738608,47.9310594,0 -122.1748620,47.9276386,0 -122.1755547,47.9241422,0 -122.1757350,47.9224550,0 -122.1758695,47.9216185,0 -122.1761755,47.9207919,0 -122.1773410,47.9171058,0 -122.1781452,47.9133244,0 -122.1785806,47.9094830,0 -122.1786431,47.9056175,0 -122.1783322,47.9017640,0 -122.1776507,47.8979585,0 -122.1766051,47.8942366,0 -122.1752050,47.8906331,0 -122.1734636,47.8871815,0 -122.1713971,47.8839141,0 -122.1690248,47.8808615,0 -122.1663689,47.8780522,0 -122.1662250,47.8779140,0 -122.1663830,47.8775057,0 -122.1664655,47.8773579,0 -122.1665721,47.8772144,0 -122.1666948,47.8770851,0 -122.1671095,47.8767346,0 -122.1677772,47.8762599,0 -122.1704964,47.8741442,0 -122.1730235,47.8718025,0 -122.1753396,47.8692519,0 -122.1774277,47.8665115,0 -122.1789183,47.8643700,0 -122.1804124,47.8624288,0 -122.1827234,47.8590884,0 -122.1846836,47.8555308,0 -122.1862730,47.8517927,0 -122.1868834,47.8498226,0 -122.1876536,47.8477110,0 -122.1882015,47.8464182,0 -122.1893715,47.8426713,0 -122.1901687,47.8388277,0 -122.1905852,47.8349246,0 -122.1906172,47.8309994,0 -122.1902643,47.8270899,0 -122.1895300,47.8232339,0 -122.1884212,47.8194684,0 -122.1869487,47.8158298,0 -122.1861069,47.8140118,0 -122.1860633,47.8136954,0 -122.1857955,47.8106777,0 -122.1850985,47.8069297,0 -122.1840479,47.8032650,0 -122.1826531,47.7997171,0 -122.1809270,47.7963180,0 -122.1788851,47.7930986,0 -122.1765460,47.7900883,0 -122.1739309,47.7873144,0 -122.1710636,47.7848020,0 -122.1679702,47.7825739,0 -122.1646787,47.7806505,0 -122.1612191,47.7790491,0 -122.1576227,47.7777844,0 -122.1539223,47.7768678,0 -122.1501514,47.7763076,0 -122.1463443,47.7761090,0 -122.1454664,47.7761050,0 -122.1425942,47.7760921,0 -122.1344840,47.7760574,0 -122.1262763,47.7760212,0 -122.1142797,47.7759598,0 -122.1133611,47.7759109,0 -122.1132193,47.7740347,0 -122.1131951,47.7740366,0 -122.1128775,47.7704157,0 -122.1118860,47.7657119,0 -122.1112700,47.7634677,0 -122.1112077,47.7634848,0 -122.1109005,47.7622045,0 -122.1108715,47.7620208,0 -122.1108557,47.7617957,0 -122.1108666,47.7613174,0 -122.1110537,47.7598029,0 -122.1111773,47.7591020,0 -122.1114780,47.7552406,0 -122.1114039,47.7513681,0 -122.1109555,47.7475210,0 -122.1101372,47.7437352,0 -122.1089566,47.7400464,0 -122.1074248,47.7364890,0 -122.1055561,47.7330964,0 -122.1033680,47.7299005,0 -122.1008811,47.7269312,0 -122.0981187,47.7242163,0 -122.0951066,47.7217814,0 -122.0918732,47.7196491,0 -122.0884487,47.7178396,0 -122.0848652,47.7163698,0 -122.0811564,47.7152534,0 -122.0773570,47.7145010,0 -122.0735027,47.7141196,0 -122.0696295,47.7141127,0 -122.0657739,47.7144804,0 -122.0619718,47.7152194,0 -122.0582591,47.7163226,0 -122.0563959,47.7169759,0 -122.0553928,47.7170095,0 -122.0356327,47.7166702,0 -122.0346864,47.7166064,0 -122.0347795,47.7156626,0 -122.0350465,47.7138762,0 -122.0353917,47.7107083,0 -122.0359479,47.7026248,0 -122.0360570,47.7016906,0 -122.0368348,47.7005353,0 -122.0375298,47.6995998,0 -122.0395416,47.6962534,0 -122.0412176,47.6927267,0 -122.0425418,47.6890534,0 -122.0435015,47.6852686,0 -122.0440876,47.6814081,0 -122.0442945,47.6775090,0 -122.0441202,47.6736082,0 -122.0435665,47.6697430,0 -122.0426386,47.6659502,0 -122.0413452,47.6622660,0 -122.0396989,47.6587254,0 -122.0377151,47.6553622,0 -122.0354129,47.6522084,0 -122.0328142,47.6492942,0 -122.0299437,47.6466472,0 -122.0268288,47.6442926,0 -122.0234992,47.6422530,0 -122.0199866,47.6405478,0 -122.0163244,47.6391931,0 -122.0125477,47.6382020,0 -122.0086923,47.6375838,0 -122.0085987,47.6375735,0 -122.0083882,47.6372419,0 -122.0062506,47.6341974,0 -122.0038393,47.6313647,0 -122.0030004,47.6304673,0 -122.0023234,47.6286241,0 -122.0022887,47.6285129,0 -122.0007073,47.6248061,0 -121.9987609,47.6212773,0 -121.9964693,47.6179622,0 -121.9938557,47.6148946,0 -121.9927399,47.6138247,0 -121.9918234,47.6128581,0 -121.9891266,47.6102680,0 -121.9861997,47.6079410,0 -121.9830683,47.6058975,0 -121.9797598,47.6041553,0 -121.9763031,47.6027297,0 -121.9727284,47.6016331,0 -121.9719625,47.6014745,0 -121.9706455,47.6011285,0 -121.9705202,47.6007486,0 -121.9697415,47.5979031,0 -121.9683778,47.5943142,0 -121.9666763,47.5908725,0 -121.9646527,47.5876098,0 -121.9646192,47.5875613,0 -121.9647748,47.5866380,0 -121.9648129,47.5864520,0 -121.9648201,47.5864538,0 -121.9652740,47.5845814,0 -121.9654564,47.5843745,0 -121.9684267,47.5805642,0 -121.9685211,47.5804267,0 -121.9694734,47.5796686,0 -121.9705992,47.5788616,0 -121.9735204,47.5763046,0 -121.9761799,47.5734764,0 -121.9785527,47.5704037,0 -121.9806165,47.5671155,0 -121.9823518,47.5636427,0 -121.9837423,47.5600181,0 -121.9847748,47.5562757,0 -121.9854397,47.5524509,0 -121.9857307,47.5485796,0 -121.9857824,47.5466285,0 -121.9858969,47.5462751,0 -121.9871938,47.5427588,0 -121.9882556,47.5384745,0 -121.9888389,47.5340993,0 -121.9889046,47.5311308,0 -121.9889380,47.5311313,0 -121.9889443,47.5307163,0 -121.9889453,47.5306474,0 -121.9890095,47.5296364,0 -121.9901398,47.5281571,0 -121.9905492,47.5276695,0 -121.9928834,47.5242141,0 -121.9936603,47.5229237,0 -121.9941816,47.5228968,0 -121.9980908,47.5225019,0 -122.0019423,47.5217254,0 -122.0056991,47.5205747,0 -122.0093249,47.5190611,0 -122.0127847,47.5171990,0 -122.0160451,47.5150065,0 -122.0190747,47.5125047,0 -122.0218442,47.5097177,0 -122.0227525,47.5087091,0 -122.0237156,47.5086616,0 -122.0262740,47.5086616,0 -122.0299211,47.5086660,0 -122.0308780,47.5087137,0 -122.0317765,47.5092464,0 -122.0335546,47.5104134,0 -122.0372128,47.5123076,0 -122.0410465,47.5138154,0 -122.0450149,47.5149210,0 -122.0490760,47.5156125,0 -122.0531866,47.5158827,0 -122.0578770,47.5159489,0 -122.0587554,47.5159806,0 -122.0632507,47.5162420,0 -122.0642015,47.5163434,0 -122.0651136,47.5167241,0 -122.0688091,47.5180576,0 -122.0726175,47.5190221,0 -122.0765023,47.5196083,0 -122.0804258,47.5198106,0 -122.0843502,47.5196271,0 -122.0882377,47.5190595,0 -122.0920507,47.5181132,0 -122.0957526,47.5167975,0 -122.0993075,47.5151249,0 -122.1026812,47.5131117,0 -122.1058411,47.5107772,0 -122.1087567,47.5081440,0 -122.1114000,47.5052375,0 -122.1137454,47.5020857,0 -122.1157703,47.4987190,0 -122.1174552,47.4951700,0 -122.1187838,47.4914727,0 -122.1197433,47.4876630,0 -122.1203244,47.4837775,0 -122.1203447,47.4835735,0 -122.1206860,47.4818555,0 -122.1211824,47.4787039,0 -122.1214261,47.4755228,0 -122.1214675,47.4743904,0 -122.1215084,47.4738590,0 -122.1216083,47.4695825,0 -122.1212509,47.4653198,0 -122.1209452,47.4631043,0 -122.1209286,47.4624427,0 -122.1209737,47.4619304,0 -122.1215636,47.4618859,0 -122.1249329,47.4614875,0 -122.1282564,47.4608050,0 -122.1315100,47.4598433,0 -122.1321844,47.4596124,0 -122.1358648,47.4581451,0 -122.1393820,47.4563209,0 -122.1427015,47.4541577,0 -122.1457907,47.4516767,0 -122.1486192,47.4489022,0 -122.1511594,47.4458615,0 -122.1533864,47.4425844,0 -122.1552782,47.4391031,0 -122.1568163,47.4354517,0 -122.1579856,47.4316661,0 -122.1587747,47.4277833,0 -122.1591757,47.4238415,0 -122.1591849,47.4198794,0 -122.1588020,47.4159358,0 -122.1586443,47.4148662,0 -122.1582807,47.4111258,0 -122.1575033,47.4072206,0 -122.1563415,47.4034120,0 -122.1548068,47.3997378,0 -122.1529144,47.3962344,0 -122.1506830,47.3929365,0 -122.1481348,47.3898767,0 -122.1452951,47.3870855,0 -122.1434908,47.3856348,0 -122.1424109,47.3846070,0 -122.1422550,47.3843736,0 -122.1421105,47.3841025,0 -122.1419088,47.3836162,0 -122.1407900,47.3805861,0 -122.1390977,47.3770902,0 -122.1370743,47.3737749,0 -122.1347389,47.3706715,0 -122.1321136,47.3678092,0 -122.1292230,47.3652150,0 -122.1260944,47.3629133,0 -122.1227574,47.3609260,0 -122.1192434,47.3592716,0 -122.1155854,47.3579659,0 -122.1118181,47.3570211,0 -122.1079769,47.3564461,0 -122.1040981,47.3562464,0 -122.1029207,47.3562430,0 -122.1019754,47.3561945,0 -122.1018210,47.3560276,0 -122.1007216,47.3549469,0 -122.1017085,47.3545464,0 -122.1019312,47.3544429,0 -122.1029041,47.3542113,0 -122.1045473,47.3539064,0 -122.1079655,47.3531156,0 -122.1113013,47.3520284,0 -122.1124752,47.3515880,0 -122.1129593,47.3516524,0 -122.1156644,47.3521534,0 -122.1194415,47.3524878,0 -122.1232332,47.3524631,0 -122.1270055,47.3520794,0 -122.1307245,47.3513403,0 -122.1343569,47.3502523,0 -122.1378699,47.3488253,0 -122.1412320,47.3470720,0 -122.1444130,47.3450083,0 -122.1450550,47.3444994,0 -122.1462439,47.3436464,0 -122.1471826,47.3435995,0 -122.1646174,47.3435624,0 -122.1655729,47.3436066,0 -122.1658931,47.3437946,0 -122.1691194,47.3454958,0 -122.1724872,47.3468960,0 -122.1759686,47.3479836,0 -122.1795346,47.3487496,0 -122.1800012,47.3488278,0 -122.1839917,47.3492917,0 -122.1880085,47.3493530,0 -122.1920112,47.3490112,0 -122.1959595,47.3482695,0 -122.1998134,47.3471355,0 -122.2012042,47.3465694,0 -122.2024115,47.3461440,0 -122.2032910,47.3461049,0 -122.2041638,47.3461519,0 -122.2055427,47.3471854,0 -122.2088071,47.3493895,0 -122.2122726,47.3512620,0 -122.2159053,47.3527845,0 -122.2196703,47.3539423,0 -122.2235308,47.3547242,0 -122.2274495,47.3551227,0 -122.2313884,47.3551337,0 -122.2353093,47.3547574,0 -122.2387392,47.3540827,0 -122.2408791,47.3537705,0 -122.2409971,47.3537591,0 -122.2448952,47.3529877,0 -122.2486974,47.3518333,0 -122.2523664,47.3503073,0 -122.2558659,47.3484249,0 -122.2591613,47.3462045,0 -122.2622202,47.3436681,0 -122.2650123,47.3408407,0 -122.2675101,47.3377503,0 -122.2696889,47.3344272,0 -122.2715273,47.3309044,0 -122.2730071,47.3272166,0 -122.2741137,47.3234001,0 -122.2748361,47.3194927,0 -122.2751673,47.3155328,0 -122.2751040,47.3115597,0 -122.2746468,47.3076124,0 -122.2739066,47.3042181,0 -122.2738708,47.3040032,0 -122.2747941,47.3033108,0 -122.2760385,47.3024721,0 -122.2790510,47.2999818,0 -122.2818061,47.2972094,0 -122.2842774,47.2941814,0 -122.2864414,47.2909266,0 -122.2869890,47.2900086,0 -122.2875811,47.2894681,0 -122.2884350,47.2887759,0 -122.2897265,47.2875499,0 -122.2897284,47.2875520,0 -122.2916951,47.2857249,0 -122.2944391,47.2829123,0 -122.2968939,47.2798440,0 -122.2990357,47.2765496,0 -122.3008440,47.2730610,0 -122.3023013,47.2694117,0 -122.3033935,47.2656371,0 -122.3036522,47.2645448,0 -122.3038820,47.2644036,0 -122.3056074,47.2634823,0 -122.3064437,47.2632285,0 -122.3109047,47.2615789,0 -122.3123133,47.2609605,0 -122.3132318,47.2609215,0 -122.3143155,47.2609259,0 -122.3143155,47.2609132,0 -122.3172418,47.2609163,0 -122.3213000,47.2605052,0 -122.3252953,47.2596829,0 -122.3291861,47.2584580,0 -122.3306867,47.2578111,0 -122.3318171,47.2573916,0 -122.3328292,47.2573435,0 -122.3340488,47.2573485,0 -122.3350692,47.2574015,0 -122.3358992,47.2588123,0 -122.3364588,47.2598698,0 -122.3388475,47.2634108,0 -122.3416001,47.2666768,0 -122.3446853,47.2696307,0 -122.3480678,47.2722387,0 -122.3531423,47.2757359,0 -122.3533743,47.2758945,0 -122.3555340,47.2773606,0 -122.3683142,47.2861855,0 -122.3685365,47.2863379,0 -122.3761442,47.2915158,0 -122.3953566,47.3047704,0 -122.4141315,47.3177176,0 -122.4146066,47.3180451,0 -122.4168398,47.3195842,0 -122.4175689,47.3201405,0 -122.4164617,47.3202593,0 -122.4164245,47.3202604,0 -122.4154915,47.3203633,0 -122.4152195,47.3203925,0 -122.4152196,47.3203933,0 -122.4132671,47.3206086,0 -122.4127711,47.3206834,0 -122.4092211,47.3213839,0 -122.4057489,47.3224023,0 -122.4023830,47.3237303,0 -122.3991508,47.3253571,0 -122.3964284,47.3270517,0 -122.3962750,47.3271352,0 -122.3957148,47.3273687,0 -122.3952617,47.3275070,0 -122.3937631,47.3278136,0 -122.3934434,47.3278803,0 -122.3926116,47.3280576,0 -122.3919384,47.3281449,0 -122.3916650,47.3281583,0 -122.3872987,47.3286125,0 -122.3830085,47.3295426,0 -122.3788460,47.3309371,0 -122.3748614,47.3327794,0 -122.3729331,47.3338029,0 -122.3720427,47.3341575,0 -122.3720355,47.3341599,0 -122.3710720,47.3344546,0 -122.3685641,47.3353303,0 -122.3664856,47.3358156,0 -122.3660572,47.3358895,0 -122.3656783,47.3359512,0 -122.3641929,47.3361783,0 -122.3638262,47.3362361,0 -122.3622290,47.3364956,0 -122.3615889,47.3365889,0 -122.3609462,47.3366721,0 -122.3599771,47.3368096,0 -122.3598967,47.3368220,0 -122.3559831,47.3376280,0 -122.3521695,47.3388205,0 -122.3484938,47.3403875,0 -122.3449928,47.3423134,0 -122.3417014,47.3445789,0 -122.3386525,47.3471616,0 -122.3358765,47.3500356,0 -122.3334010,47.3531722,0 -122.3312508,47.3565401,0 -122.3294474,47.3601057,0 -122.3280087,47.3638335,0 -122.3269491,47.3676862,0 -122.3262792,47.3716254,0 -122.3260056,47.3756117,0 -122.3261311,47.3796055,0 -122.3263584,47.3813260,0 -122.3266555,47.3843304,0 -122.3266994,47.3843260,0 -122.3267740,47.3850092,0 -122.3268359,47.3860876,0 -122.3272226,47.3897972,0 -122.3279533,47.3934546,0 -122.3290214,47.3970281,0 -122.3304177,47.4004865,0 -122.3309822,47.4015788,0 -122.3314738,47.4026621,0 -122.3317157,47.4036905,0 -122.3319849,47.4051703,0 -122.3329907,47.4087594,0 -122.3333608,47.4097240,0 -122.3343387,47.4126902,0 -122.3345422,47.4136376,0 -122.3355409,47.4173909,0 -122.3368989,47.4210297,0 -122.3386034,47.4245196,0 -122.3406383,47.4278278,0 -122.3429845,47.4309230,0 -122.3456198,47.4337760,0 -122.3485194,47.4363601,0 -122.3516559,47.4386507,0 -122.3549998,47.4406264,0 -122.3585195,47.4422684,0 -122.3621819,47.4435614,0 -122.3659525,47.4444930,0 -122.3697956,47.4450546,0 -122.3736750,47.4452408,0 -122.4048529,47.4452220,0 -122.4058153,47.4452694,0 -122.4061573,47.4460201,0 -122.4065646,47.4471621,0 -122.4067551,47.4477622,0 -122.4071871,47.4493464,0 -122.4071936,47.4493747,0 -122.4073818,47.4502951,0 -122.4074820,47.4508511,0 -122.4076737,47.4522046,0 -122.4077746,47.4544572,0 -122.4077743,47.4544801,0 -122.4077623,47.4549498,0 -122.4077377,47.4556121,0 -122.4075708,47.4575491,0 -122.4075269,47.4578735,0 -122.4072801,47.4593037,0 -122.4070271,47.4605074,0 -122.4070319,47.4605085,0 -122.4064903,47.4630352,0 -122.4060499,47.4668151,0 -122.4059707,47.4706198,0 -122.4062534,47.4744148,0 -122.4068955,47.4781658,0 -122.4078911,47.4818387,0 -122.4092313,47.4854004,0 -122.4109039,47.4888187,0 -122.4159623,47.4980203,0 -122.4176302,47.5007839,0 -122.4195156,47.5034041,0 -122.4248455,47.5102140,0 -122.4279691,47.5137531,0 -122.4359780,47.5218139,0 -122.4360605,47.5218978,0 -122.4369233,47.5228462,0 -122.4384884,47.5246847,0 -122.4399773,47.5266718,0 -122.4408340,47.5279768,0 -122.4421509,47.5303103,0 -122.4426807,47.5314166,0 -122.4437277,47.5340761,0 -122.4442375,47.5357043,0 -122.4444344,47.5364272,0 -122.4445765,47.5371628,0 -122.4449274,47.5394337,0 -122.4450154,47.5401970,0 -122.4450445,47.5409648,0 -122.4450431,47.5429284,0 -122.4450195,47.5433911,0 -122.4450111,47.5472963,0 -122.4453834,47.5511837,0 -122.4461331,47.5550162,0 -122.4472530,47.5587574,0 -122.4487323,47.5623715,0 -122.4505570,47.5658242,0 -122.4527097,47.5690825,0 -122.4531358,47.5696636,0 -122.4537254,47.5707137,0 -122.4538189,47.5709067,0 -122.4541461,47.5716597,0 -122.4543446,47.5724535,0 -122.4545462,47.5734269,0 -122.4546853,47.5742858,0 -122.4546729,47.5751525,0 -122.4546316,47.5758685,0</coordinates>
          </LinearRing>
        </outerBoundaryIs>
      </Polygon>
    </Placemark>
  </Document>
</kml>